NORAD_CAT_ID,OBJECT_NAME,OBJECT_TYPE,EPOCH,MEAN_MOTION,ECCENTRICITY,INCLINATION,RA_OF_ASC_NODE,ARG_OF_PERICENTER,MEAN_ANOMALY,BSTAR,MEAN_MOTION_DOT,MEAN_MOTION_DDOT,TLE_LINE0,TLE_LINE1,TLE_LINE2,SEMIMAJOR_AXIS,PERIOD,APOGEE,PERIGEE,DECAYED
51985.0,STARLINK-3651,PAYLOAD,2023-08-15 10:34:37,15.08843281,0.0001352,53.2173,286.6051,86.1136,274.0011,0.00011904,1.607e-05,0.0,0 STARLINK-3651,1 51985U 22025AF  23227.44070992  .00001607  00000-0  11904-3 0  9992,2 51985  53.2173 286.6051 0001352  86.1136 274.0011 15.08843281 80659,6917.87,95.437,540.671,538.8,0.0
51985.0,STARLINK-3651,PAYLOAD,2023-08-16 08:50:01,15.08839343,0.0001366,53.217,282.4411,90.3522,269.7627,1.2391e-05,-9.1e-07,0.0,0 STARLINK-3651,1 51985U 22025AF  23228.36807395 -.00000091  00000-0  12391-4 0  9998,2 51985  53.2170 282.4411 0001366  90.3522 269.7627 15.08839343 80794,6917.882,95.438,540.692,538.802,0.0
51985.0,STARLINK-3651,PAYLOAD,2023-08-17 10:16:11,15.08844853,0.0001486,53.2173,277.6833,103.0192,257.0966,9.0939e-05,1.16e-05,0.0,0 STARLINK-3651,1 51985U 22025AF  23229.42790691  .00001160  00000-0  90939-4 0  9997,2 51985  53.2173 277.6833 0001486 103.0192 257.0966 15.08844853 80955,6917.866,95.437,540.759,538.703,0.0
51985.0,STARLINK-3651,PAYLOAD,2023-08-18 02:10:05,15.08826538,0.0002032,53.2192,274.7194,101.8097,258.3123,-0.00020382,-3.529e-05,0.0,0 STARLINK-3651,1 51985U 22025AF  23230.09033655 -.00003529  00000-0 -20382-3 0  9999,2 51985  53.2192 274.7194 0002032 101.8097 258.3123 15.08826538 81053,6917.922,95.438,541.192,538.381,0.0
51985.0,STARLINK-3651,PAYLOAD,2023-08-19 02:00:50,15.08845379,0.0001264,53.2169,270.2489,93.9705,266.1431,8.5259e-05,1.069e-05,0.0,0 STARLINK-3651,1 51985U 22025AF  23231.08392219  .00001069  00000-0  85259-4 0  9993,2 51985  53.2169 270.2489 0001264  93.9705 266.1431 15.08845379 81208,6917.864,95.437,540.603,538.855,0.0
51985.0,STARLINK-3651,PAYLOAD,2023-08-19 09:57:45,15.0885453,0.0001316,53.2169,268.7627,95.512,264.6023,0.00017681,2.528e-05,0.0,0 STARLINK-3651,1 51985U 22025AF  23231.41511394  .00002528  00000-0  17681-3 0  9991,2 51985  53.2169 268.7627 0001316  95.5120 264.6023 15.08854530 81255,6917.836,95.437,540.611,538.791,0.0
51985.0,STARLINK-3651,PAYLOAD,2023-08-20 01:51:38,15.08833031,0.0001247,53.2157,265.7896,94.3885,265.725,0.00050997,7.836e-05,0.0,0 STARLINK-3651,1 51985U 22025AF  23232.07752972  .00007836  00000-0  50997-3 0  9997,2 51985  53.2157 265.7896 0001247  94.3885 265.7250 15.08833031 81353,6917.902,95.438,540.629,538.904,0.0
51985.0,STARLINK-3651,PAYLOAD,2023-08-21 03:17:48,15.08846535,0.000142,53.2163,261.0306,86.2558,273.8596,0.00010185,1.334e-05,0.0,0 STARLINK-3651,1 51985U 22025AF  23233.13736132  .00001334  00000-0  10185-3 0  9997,2 51985  53.2163 261.0306 0001420  86.2558 273.8596 15.08846535 81519,6917.86,95.437,540.708,538.743,0.0
51985.0,STARLINK-3651,PAYLOAD,2023-08-21 09:39:19,15.088568,0.0001296,53.2162,259.8414,86.0442,274.0698,1.8471e-05,6e-08,0.0,0 STARLINK-3651,1 51985U 22025AF  23233.40231361  .00000006  00000-0  18471-4 0  9993,2 51985  53.2162 259.8414 0001296  86.0442 274.0698 15.08856800 81550,6917.829,95.436,540.591,538.797,0.0
51985.0,STARLINK-3651,PAYLOAD,2023-08-22 01:33:11,15.08843128,0.0001437,53.2169,256.87,74.2305,285.8845,6.5823e-05,7.6e-06,0.0,0 STARLINK-3651,1 51985U 22025AF  23234.06471812  .00000760  00000-0  65823-4 0  9993,2 51985  53.2169 256.8700 0001437  74.2305 285.8845 15.08843128 81650,6917.871,95.437,540.73,538.742,0.0
51985.0,STARLINK-3651,PAYLOAD,2023-08-22 07:54:43,15.08866685,0.0001255,53.216,255.6796,78.5637,281.5496,-0.00033105,-5.557e-05,0.0,0 STARLINK-3651,1 51985U 22025AF  23234.32967164 -.00005557  00000-0 -33105-3 0  9990,2 51985  53.2160 255.6796 0001255  78.5637 281.5496 15.08866685 81698,6917.799,95.436,540.532,538.796,0.0
51985.0,STARLINK-3651,PAYLOAD,2023-08-22 11:05:30,15.08843221,0.0001339,53.216,255.0846,85.0218,275.0927,5.5086e-05,5.89e-06,0.0,0 STARLINK-3651,1 51985U 22025AF  23234.46215688  .00000589  00000-0  55086-4 0  9993,2 51985  53.2160 255.0846 0001339  85.0218 275.0927 15.08843221 81710,6917.871,95.437,540.662,538.809,0.0
51985.0,STARLINK-3651,PAYLOAD,2023-08-24 06:00:55,15.08837742,0.0001381,53.2161,247.0545,100.9119,259.2028,4.6738e-05,4.56e-06,0.0,0 STARLINK-3651,1 51985U 22025AF  23236.25063875  .00000456  00000-0  46738-4 0  9998,2 51985  53.2161 247.0545 0001381 100.9119 259.2028 15.08837742 80897,6917.887,95.438,540.708,538.797,0.0
51985.0,STARLINK-3651,PAYLOAD,2023-08-25 05:51:42,15.08835886,0.0001294,53.2165,242.5961,89.7017,270.4123,2.8505e-05,1.66e-06,0.0,0 STARLINK-3651,1 51985U 22025AF  23237.24424334  .00000166  00000-0  28505-4 0  9999,2 51985  53.2165 242.5961 0001294  89.7017 270.4123 15.08835886 82134,6917.893,95.438,540.653,538.863,0.0
51985.0,STARLINK-3651,PAYLOAD,2023-08-25 12:13:15,15.08837979,0.0001401,53.2157,241.405,99.4419,260.6731,5.2191e-05,5.43e-06,0.0,0 STARLINK-3651,1 51985U 22025AF  23237.50920143  .00000543  00000-0  52191-4 0  9994,2 51985  53.2157 241.4050 0001401  99.4419 260.6731 15.08837979 81080,6917.887,95.438,540.721,538.782,0.0
51985.0,STARLINK-3651,PAYLOAD,2023-08-26 05:42:29,15.08839078,0.0001393,53.216,238.1339,99.4205,260.6945,7.8795e-05,9.66e-06,0.0,0 STARLINK-3651,1 51985U 22025AF  23238.23784130  .00000966  00000-0  78795-4 0  9996,2 51985  53.2160 238.1339 0001393  99.4205 260.6945 15.08839078 81191,6917.883,95.438,540.712,538.785,0.0
51985.0,STARLINK-3651,PAYLOAD,2023-08-27 00:47:07,15.08837039,0.0001417,53.2163,234.5644,100.3372,259.778,5.5129e-05,5.89e-06,0.0,0 STARLINK-3651,1 51985U 22025AF  23239.03272490  .00000589  00000-0  55129-4 0  9993,2 51985  53.2163 234.5644 0001417 100.3372 259.7780 15.08837039 82403,6917.889,95.438,540.735,538.774,0.0
51985.0,STARLINK-3651,PAYLOAD,2023-08-27 05:33:17,15.0883556,0.0001389,53.2163,233.673,97.4766,262.6384,4.0776e-05,3.61e-06,0.0,0 STARLINK-3651,1 51985U 22025AF  23239.23144702  .00000361  00000-0  40776-4 0  9999,2 51985  53.2163 233.6730 0001389  97.4766 262.6384 15.08835560 81342,6917.894,95.438,540.72,538.798,0.0
51985.0,STARLINK-3651,PAYLOAD,2023-08-28 06:59:27,15.08839928,0.000142,53.2169,228.9166,96.3205,263.7949,4.1629e-05,3.75e-06,0.0,0 STARLINK-3651,1 51985U 22025AF  23240.29128678  .00000375  00000-0  41629-4 0  9994,2 51985  53.2169 228.9166 0001420  96.3205 263.7949 15.08839928 82599,6917.881,95.438,540.728,538.763,0.0
51985.0,STARLINK-3651,PAYLOAD,2023-08-28 16:31:46,15.08838321,0.0001464,53.2172,227.1311,87.2019,272.914,5.2275e-05,5.44e-06,0.0,0 STARLINK-3651,1 51985U 22025AF  23240.68872830  .00000544  00000-0  52275-4 0  9990,2 51985  53.2172 227.1311 0001464  87.2019 272.9140 15.08838321 81563,6917.886,95.438,540.763,538.738,0.0
51985.0,STARLINK-3651,PAYLOAD,2023-08-29 05:14:51,15.08840157,0.0001381,53.2167,224.7518,89.8325,270.2825,9.41e-05,1.21e-05,0.0,0 STARLINK-3651,1 51985U 22025AF  23241.21864604  .00001210  00000-0  94100-4 0  9994,2 51985  53.2167 224.7518 0001381  89.8325 270.2825 15.08840157 81645,6917.88,95.438,540.7,538.79,0.0
51985.0,STARLINK-3651,PAYLOAD,2023-08-29 22:44:05,15.08841618,0.0001416,53.2158,221.4817,86.6326,273.4828,5.3947e-05,5.71e-06,0.0,0 STARLINK-3651,1 51985U 22025AF  23241.94728731  .00000571  00000-0  53947-4 0  9997,2 51985  53.2158 221.4817 0001416  86.6326 273.4828 15.08841618 82840,6917.875,95.437,540.72,538.761,0.0
51985.0,STARLINK-3651,PAYLOAD,2023-08-30 08:16:24,15.08843062,0.0001463,53.2162,219.6971,88.7072,271.4087,6.6868e-05,7.76e-06,0.0,0 STARLINK-3651,1 51985U 22025AF  23242.34472537  .00000776  00000-0  66868-4 0  9995,2 51985  53.2162 219.6971 0001463  88.7072 271.4087 15.08843062 81814,6917.871,95.437,540.748,538.724,0.0
51985.0,STARLINK-3651,PAYLOAD,2023-08-31 00:10:16,15.08833217,0.0001433,53.2164,216.7225,96.8646,263.251,9.552e-05,1.232e-05,0.0,0 STARLINK-3651,1 51985U 22025AF  23243.00713038  .00001232  00000-0  95520-4 0  9998,2 51985  53.2164 216.7225 0001433  96.8646 263.2510 15.08833217 83004,6917.901,95.438,540.757,538.775,0.0
51985.0,STARLINK-3651,PAYLOAD,2023-08-31 22:25:40,15.08833362,0.0001442,53.2161,212.5597,97.3785,262.7371,2.5952e-05,1.25e-06,0.0,0 STARLINK-3651,1 51985U 22025AF  23243.93449275  .00000125  00000-0  25952-4 0  9991,2 51985  53.2161 212.5597 0001442  97.3785 262.7371 15.08833362 82051,6917.901,95.438,540.763,538.768,0.0
51985.0,STARLINK-3651,PAYLOAD,2023-09-01 00:01:03,15.08836498,0.0001473,53.2164,212.262,98.6307,261.4852,2.4345e-06,-2.49e-06,0.0,0 STARLINK-3651,1 51985U 22025AF  23244.00073147 -.00000249  00000-0  24345-5 0  9995,2 51985  53.2164 212.2620 0001473  98.6307 261.4852 15.08836498 82060,6917.891,95.438,540.775,538.737,0.0
51985.0,STARLINK-3651,PAYLOAD,2023-09-01 20:41:03,15.08838706,0.0001271,53.2166,208.3975,94.6523,265.4614,8.14e-05,1.008e-05,0.0,0 STARLINK-3651,1 51985U 22025AF  23244.86184907  .00001008  00000-0  81400-4 0  9993,2 51985  53.2166 208.3975 0001271  94.6523 265.4614 15.08838706 83282,6917.884,95.438,540.629,538.87,0.0
51985.0,STARLINK-3651,PAYLOAD,2023-09-02 07:48:44,15.08850524,0.0001299,53.2164,206.3164,93.4803,266.6338,0.00013361,1.84e-05,0.0,0 STARLINK-3651,1 51985U 22025AF  23245.32551921  .00001840  00000-0  13361-3 0  9993,2 51985  53.2164 206.3164 0001299  93.4803 266.6338 15.08850524 83352,6917.848,95.437,540.612,538.815,0.0
51985.0,STARLINK-3651,PAYLOAD,2023-09-02 14:10:18,15.0884014,0.0001311,53.2156,205.1269,84.2714,275.8428,8.8096e-05,1.114e-05,0.0,0 STARLINK-3651,1 51985U 22025AF  23245.59048723  .00001114  00000-0  88096-4 0  9995,2 51985  53.2156 205.1269 0001311  84.2714 275.8428 15.08840140 83399,6917.88,95.438,540.652,538.838,0.0
51985.0,STARLINK-3651,PAYLOAD,2023-09-03 01:18:00,15.08830138,0.0001539,53.2181,203.0459,90.6752,269.4416,5.1506e-06,-2.06e-06,0.0,0 STARLINK-3651,1 51985U 22025AF  23246.05417747 -.00000206  00000-0  51506-5 0  9992,2 51985  53.2181 203.0459 0001539  90.6752 269.4416 15.08830138 83460,6917.911,95.438,540.84,538.711,0.0
